FENGYUN 1C DEB          
1 38134U 99025EQF 17345.10726476  .00001031  00000-0  58784-3 0  9997
2 38134  98.5164  89.4623 0129287 113.0956 248.3902 14.07592011415749
